{"fetched_at":"2026-07-20T07:40:22.620Z","source":"https://celestrak.org/NORAD/elements/gp.php?GROUP=oneweb&FORMAT=JSON","constellation":"oneweb","records":[{"OBJECT_NAME":"ONEWEB-0044","OBJECT_ID":"2020-008V","EPOCH":"2026-07-19T10:55:19.922880","CLASSIFICATION_TYPE":"U","MEAN_MOTION":13.10372496,"ECCENTRICITY":0.00016908,"INCLINATION":87.8822,"RA_OF_ASC_NODE":29.8378,"ARG_OF_PERICENTER":86.2873,"MEAN_ANOMALY":273.8447,"EPHEMERIS_TYPE":0,"NORAD_CAT_ID":45150,"ELEMENT_SET_NO":999,"REV_AT_EPOCH":31270,"BSTAR":0.00032355357,"MEAN_MOTION_DOT":0.00000126,"MEAN_MOTION_DDOT":0},{"OBJECT_NAME":"ONEWEB-0045","OBJECT_ID":"2020-008W","EPOCH":"2026-07-19T10:29:32.269920","CLASSIFICATION_TYPE":"U","MEAN_MOTION":13.11417119,"ECCENTRICITY":0.00017138,"INCLINATION":87.8893,"RA_OF_ASC_NODE":14.6401,"ARG_OF_PERICENTER":93.2844,"MEAN_ANOMALY":266.848,"EPHEMERIS_TYPE":0,"NORAD_CAT_ID":45151,"ELEMENT_SET_NO":999,"REV_AT_EPOCH":31463,"BSTAR":-0.0014688587,"MEAN_MOTION_DOT":-0.00000508,"MEAN_MOTION_DDOT":0},{"OBJECT_NAME":"ONEWEB-0047","OBJECT_ID":"2020-008X","EPOCH":"2026-07-19T10:45:21.670272","CLASSIFICATION_TYPE":"U","MEAN_MOTION":13.10370471,"ECCENTRICITY":0.0001969,"INCLINATION":87.8821,"RA_OF_ASC_NODE":29.8384,"ARG_OF_PERICENTER":95.0026,"MEAN_ANOMALY":265.1326,"EPHEMERIS_TYPE":0,"NORAD_CAT_ID":45152,"ELEMENT_SET_NO":999,"REV_AT_EPOCH":31242,"BSTAR":0.0014276839,"MEAN_MOTION_DOT":0.00000511,"MEAN_MOTION_DDOT":0},{"OBJECT_NAME":"ONEWEB-0048","OBJECT_ID":"2020-008Y","EPOCH":"2026-07-19T19:48:01.130112","CLASSIFICATION_TYPE":"U","MEAN_MOTION":13.10373626,"ECCENTRICITY":0.0001754,"INCLINATION":87.8813,"RA_OF_ASC_NODE":29.7817,"ARG_OF_PERICENTER":92.3773,"MEAN_ANOMALY":267.7555,"EPHEMERIS_TYPE":0,"NORAD_CAT_ID":45153,"ELEMENT_SET_NO":999,"REV_AT_EPOCH":31208,"BSTAR":0.0018445,"MEAN_MOTION_DOT":0.00000657,"MEAN_MOTION_DDOT":0},{"OBJECT_NAME":"ONEWEB-0049","OBJECT_ID":"2020-008Z","EPOCH":"2026-07-19T10:42:54.544032","CLASSIFICATION_TYPE":"U","MEAN_MOTION":13.10370609,"ECCENTRICITY":0.00018318,"INCLINATION":87.8811,"RA_OF_ASC_NODE":29.8461,"ARG_OF_PERICENTER":75.0472,"MEAN_ANOMALY":285.0858,"EPHEMERIS_TYPE":0,"NORAD_CAT_ID":45154,"ELEMENT_SET_NO":999,"REV_AT_EPOCH":31225,"BSTAR":0.0016086637,"MEAN_MOTION_DOT":0.00000574,"MEAN_MOTION_DDOT":0},{"OBJECT_NAME":"ONEWEB-0051","OBJECT_ID":"2020-008AA","EPOCH":"2026-07-19T17:46:33.760128","CLASSIFICATION_TYPE":"U","MEAN_MOTION":13.11417427,"ECCENTRICITY":0.0001801,"INCLINATION":87.889,"RA_OF_ASC_NODE":14.5847,"ARG_OF_PERICENTER":91.6019,"MEAN_ANOMALY":268.5316,"EPHEMERIS_TYPE":0,"NORAD_CAT_ID":45155,"ELEMENT_SET_NO":999,"REV_AT_EPOCH":31535,"BSTAR":-0.0016765,"MEAN_MOTION_DOT":-0.00000581,"MEAN_MOTION_DDOT":0},{"OBJECT_NAME":"ONEWEB-0052","OBJECT_ID":"2020-008AB","EPOCH":"2026-07-19T11:12:37.420128","CLASSIFICATION_TYPE":"U","MEAN_MOTION":13.10372386,"ECCENTRICITY":0.00016916,"INCLINATION":87.8815,"RA_OF_ASC_NODE":29.8304,"ARG_OF_PERICENTER":76.689,"MEAN_ANOMALY":283.4426,"EPHEMERIS_TYPE":0,"NORAD_CAT_ID":45156,"ELEMENT_SET_NO":999,"REV_AT_EPOCH":31216,"BSTAR":-0.0012126763,"MEAN_MOTION_DOT":-0.00000411,"MEAN_MOTION_DDOT":0},{"OBJECT_NAME":"ONEWEB-0053","OBJECT_ID":"2020-008AC","EPOCH":"2026-07-19T19:18:39.968064","CLASSIFICATION_TYPE":"U","MEAN_MOTION":13.10375758,"ECCENTRICITY":0.0001419,"INCLINATION":87.8817,"RA_OF_ASC_NODE":29.7822,"ARG_OF_PERICENTER":79.1936,"MEAN_ANOMALY":280.9351,"EPHEMERIS_TYPE":0,"NORAD_CAT_ID":45157,"ELEMENT_SET_NO":999,"REV_AT_EPOCH":31218,"BSTAR":0.0003192,"MEAN_MOTION_DOT":0.00000124,"MEAN_MOTION_DDOT":0},{"OBJECT_NAME":"ONEWEB-0054","OBJECT_ID":"2020-008AD","EPOCH":"2026-07-19T18:20:01.677120","CLASSIFICATION_TYPE":"U","MEAN_MOTION":13.10372211,"ECCENTRICITY":0.0001799,"INCLINATION":87.8818,"RA_OF_ASC_NODE":29.7762,"ARG_OF_PERICENTER":86.7342,"MEAN_ANOMALY":273.3991,"EPHEMERIS_TYPE":0,"NORAD_CAT_ID":45158,"ELEMENT_SET_NO":999,"REV_AT_EPOCH":31229,"BSTAR":0.00019431,"MEAN_MOTION_DOT":8e-7,"MEAN_MOTION_DDOT":0},{"OBJECT_NAME":"ONEWEB-0056","OBJECT_ID":"2020-008AE","EPOCH":"2026-07-19T12:08:25.716480","CLASSIFICATION_TYPE":"U","MEAN_MOTION":13.1037483,"ECCENTRICITY":0.00020669,"INCLINATION":87.8824,"RA_OF_ASC_NODE":29.8212,"ARG_OF_PERICENTER":82.7796,"MEAN_ANOMALY":277.3566,"EPHEMERIS_TYPE":0,"NORAD_CAT_ID":45159,"ELEMENT_SET_NO":999,"REV_AT_EPOCH":31241,"BSTAR":0.0010875147,"MEAN_MOTION_DOT":0.00000392,"MEAN_MOTION_DDOT":0},{"OBJECT_NAME":"ONEWEB-0057","OBJECT_ID":"2020-008AF","EPOCH":"2026-07-19T10:43:19.060896","CLASSIFICATION_TYPE":"U","MEAN_MOTION":13.10370494,"ECCENTRICITY":0.00014524,"INCLINATION":87.8818,"RA_OF_ASC_NODE":29.8443,"ARG_OF_PERICENTER":75.2768,"MEAN_ANOMALY":284.852,"EPHEMERIS_TYPE":0,"NORAD_CAT_ID":45160,"ELEMENT_SET_NO":999,"REV_AT_EPOCH":31257,"BSTAR":0.0015633973,"MEAN_MOTION_DOT":0.00000558,"MEAN_MOTION_DDOT":0},{"OBJECT_NAME":"ONEWEB-0058","OBJECT_ID":"2020-008AG","EPOCH":"2026-07-19T19:33:41.757696","CLASSIFICATION_TYPE":"U","MEAN_MOTION":13.10541196,"ECCENTRICITY":0.0001931,"INCLINATION":87.8813,"RA_OF_ASC_NODE":29.7743,"ARG_OF_PERICENTER":96.0826,"MEAN_ANOMALY":264.0522,"EPHEMERIS_TYPE":0,"NORAD_CAT_ID":45161,"ELEMENT_SET_NO":999,"REV_AT_EPOCH":31269,"BSTAR":0.0020416,"MEAN_MOTION_DOT":0.00000727,"MEAN_MOTION_DDOT":0},{"OBJECT_NAME":"ONEWEB-0059","OBJECT_ID":"2020-008AH","EPOCH":"2026-07-19T19:28:40.551744","CLASSIFICATION_TYPE":"U","MEAN_MOTION":13.10376921,"ECCENTRICITY":0.000155,"INCLINATION":87.8819,"RA_OF_ASC_NODE":29.775,"ARG_OF_PERICENTER":89.2985,"MEAN_ANOMALY":270.832,"EPHEMERIS_TYPE":0,"NORAD_CAT_ID":45162,"ELEMENT_SET_NO":999,"REV_AT_EPOCH":31259,"BSTAR":0.0010965,"MEAN_MOTION_DOT":0.00000395,"MEAN_MOTION_DDOT":0},{"OBJECT_NAME":"ONEWEB-0062","OBJECT_ID":"2020-008AJ","EPOCH":"2026-07-19T12:42:38.836224","CLASSIFICATION_TYPE":"U","MEAN_MOTION":13.1036945,"ECCENTRICITY":0.0002109,"INCLINATION":87.8818,"RA_OF_ASC_NODE":29.8208,"ARG_OF_PERICENTER":93.9149,"MEAN_ANOMALY":266.2219,"EPHEMERIS_TYPE":0,"NORAD_CAT_ID":45163,"ELEMENT_SET_NO":999,"REV_AT_EPOCH":31242,"BSTAR":0.00083639861,"MEAN_MOTION_DOT":0.00000305,"MEAN_MOTION_DDOT":0},{"OBJECT_NAME":"ONEWEB-0065","OBJECT_ID":"2020-008AK","EPOCH":"2026-07-19T19:01:20.354016","CLASSIFICATION_TYPE":"U","MEAN_MOTION":13.10374162,"ECCENTRICITY":0.000175,"INCLINATION":87.8823,"RA_OF_ASC_NODE":29.7764,"ARG_OF_PERICENTER":78.3537,"MEAN_ANOMALY":281.7786,"EPHEMERIS_TYPE":0,"NORAD_CAT_ID":45164,"ELEMENT_SET_NO":999,"REV_AT_EPOCH":31215,"BSTAR":-0.0014587,"MEAN_MOTION_DOT":-0.00000497,"MEAN_MOTION_DDOT":0},{"OBJECT_NAME":"ONEWEB-0066","OBJECT_ID":"2020-020A","EPOCH":"2026-07-19T17:24:33.193152","CLASSIFICATION_TYPE":"U","MEAN_MOTION":13.11418975,"ECCENTRICITY":0.0001739,"INCLINATION":87.8884,"RA_OF_ASC_NODE":14.5909,"ARG_OF_PERICENTER":96.351,"MEAN_ANOMALY":263.7816,"EPHEMERIS_TYPE":0,"NORAD_CAT_ID":45424,"ELEMENT_SET_NO":999,"REV_AT_EPOCH":30694,"BSTAR":-0.00026457,"MEAN_MOTION_DOT":-8.1e-7,"MEAN_MOTION_DDOT":0},{"OBJECT_NAME":"ONEWEB-0067","OBJECT_ID":"2020-020B","EPOCH":"2026-07-19T18:18:51.757920","CLASSIFICATION_TYPE":"U","MEAN_MOTION":13.11427448,"ECCENTRICITY":0.000168,"INCLINATION":87.8911,"RA_OF_ASC_NODE":14.512,"ARG_OF_PERICENTER":87.1866,"MEAN_ANOMALY":272.9454,"EPHEMERIS_TYPE":0,"NORAD_CAT_ID":45425,"ELEMENT_SET_NO":999,"REV_AT_EPOCH":30700,"BSTAR":0.00024696,"MEAN_MOTION_DOT":0.000001,"MEAN_MOTION_DDOT":0},{"OBJECT_NAME":"ONEWEB-0080","OBJECT_ID":"2020-020C","EPOCH":"2026-07-19T10:59:03.766272","CLASSIFICATION_TYPE":"U","MEAN_MOTION":13.114185,"ECCENTRICITY":0.0002146,"INCLINATION":87.8902,"RA_OF_ASC_NODE":14.6443,"ARG_OF_PERICENTER":100.8153,"MEAN_ANOMALY":259.3216,"EPHEMERIS_TYPE":0,"NORAD_CAT_ID":45426,"ELEMENT_SET_NO":999,"REV_AT_EPOCH":30693,"BSTAR":0.00058917148,"MEAN_MOTION_DOT":0.00000222,"MEAN_MOTION_DDOT":0},{"OBJECT_NAME":"ONEWEB-0090","OBJECT_ID":"2020-020D","EPOCH":"2026-07-19T11:40:33.383136","CLASSIFICATION_TYPE":"U","MEAN_MOTION":13.11415492,"ECCENTRICITY":0.00019062,"INCLINATION":87.8898,"RA_OF_ASC_NODE":14.6426,"ARG_OF_PERICENTER":91.619,"MEAN_ANOMALY":268.5156,"EPHEMERIS_TYPE":0,"NORAD_CAT_ID":45427,"ELEMENT_SET_NO":999,"REV_AT_EPOCH":30690,"BSTAR":0.00081919006,"MEAN_MOTION_DOT":0.00000303,"MEAN_MOTION_DDOT":0},{"OBJECT_NAME":"ONEWEB-0061","OBJECT_ID":"2020-020E","EPOCH":"2026-07-19T10:36:39.617280","CLASSIFICATION_TYPE":"U","MEAN_MOTION":13.11418228,"ECCENTRICITY":0.00018239,"INCLINATION":87.8892,"RA_OF_ASC_NODE":14.6357,"ARG_OF_PERICENTER":92.6195,"MEAN_ANOMALY":267.5142,"EPHEMERIS_TYPE":0,"NORAD_CAT_ID":45428,"ELEMENT_SET_NO":999,"REV_AT_EPOCH":30685,"BSTAR":-0.001240045,"MEAN_MOTION_DOT":-0.00000427,"MEAN_MOTION_DDOT":0},{"OBJECT_NAME":"ONEWEB-0081","OBJECT_ID":"2020-020F","EPOCH":"2026-07-19T17:29:28.879008","CLASSIFICATION_TYPE":"U","MEAN_MOTION":13.11415016,"ECCENTRICITY":0.0001619,"INCLINATION":87.8891,"RA_OF_ASC_NODE":14.5877,"ARG_OF_PERICENTER":92.3482,"MEAN_ANOMALY":267.7832,"EPHEMERIS_TYPE":0,"NORAD_CAT_ID":45429,"ELEMENT_SET_NO":999,"REV_AT_EPOCH":30700,"BSTAR":-0.00075964,"MEAN_MOTION_DOT":-0.00000257,"MEAN_MOTION_DDOT":0},{"OBJECT_NAME":"ONEWEB-0069","OBJECT_ID":"2020-020G","EPOCH":"2026-07-19T17:32:06.241056","CLASSIFICATION_TYPE":"U","MEAN_MOTION":13.11417757,"ECCENTRICITY":0.0001634,"INCLINATION":87.8893,"RA_OF_ASC_NODE":14.5908,"ARG_OF_PERICENTER":95.2546,"MEAN_ANOMALY":264.8769,"EPHEMERIS_TYPE":0,"NORAD_CAT_ID":45430,"ELEMENT_SET_NO":999,"REV_AT_EPOCH":30693,"BSTAR":-0.00087773,"MEAN_MOTION_DOT":-0.00000298,"MEAN_MOTION_DDOT":0},{"OBJECT_NAME":"ONEWEB-0031","OBJECT_ID":"2020-020H","EPOCH":"2026-07-19T18:23:13.155072","CLASSIFICATION_TYPE":"U","MEAN_MOTION":13.11419853,"ECCENTRICITY":0.0002023,"INCLINATION":87.8883,"RA_OF_ASC_NODE":14.5862,"ARG_OF_PERICENTER":93.6312,"MEAN_ANOMALY":266.5047,"EPHEMERIS_TYPE":0,"NORAD_CAT_ID":45431,"ELEMENT_SET_NO":999,"REV_AT_EPOCH":30692,"BSTAR":0.00069915,"MEAN_MOTION_DOT":0.0000026,"MEAN_MOTION_DDOT":0}]}
